{"id":"899","name":"Neptune","centerId":"10","centerName":"Sun ","epoch":"2000-Jan-01 12:00:00.0000","ephemerisTable":{"eccentricity":0.01126932255243264,"periapsis":4452266434805.656,"inclination":1.764684957556454,"longitudeOfAscendingNode":131.808750441014,"argumentOfPeriapsis":266.1071489542577,"timeOfPeriapsis":2467077.427229176,"meanMotion":6.90772322691699e-8,"meanAnomaly":267.2982359930508,"trueAnomaly":266.0092669094219,"semiMajorAxis":4503012333246.595,"apoapsis":4553758231687.532,"siderealOrbitPeriod":5211557964.528826,"semiMinorAxis":4502726388218.849,"semiLatusRectum":4502440461348.851,"linearEccentricity":50745898440.97878},"physicalDataTable":{"meanRadius":24624000,"mass":1.02409e+26,"siderealRotRate":0.000108338,"gravParameter":6835099970,"obliquity":28.32,"siderealRotationPeriod":57996.13530967515}}
